{
  "type": "FeatureCollection",
  "features": [
    {
      "type": "Feature",
      "properties": {
        "norad_id": 40730,
        "name": "GPS BIIF-10 (PRN 08)",
        "group": "gps-ops",
        "lat": -35.641387217673206,
        "lon": 126.12947643340773,
        "alt_km": 20463.2401075229,
        "timestamp": "2025-12-08T13:49:32.051497+00:00",
        "meta_object_name": "GPS BIIF-10 (PRN 08)",
        "meta_object_id": "2015-033A",
        "meta_epoch": "2025-12-07T18:21:19.521792",
        "meta_mean_motion": 2.00565772,
        "meta_eccentricity": 0.0110644,
        "meta_inclination": 54.1351,
        "meta_ra_of_asc_node": 274.9776,
        "meta_arg_of_pericenter": 26.6875,
        "meta_mean_anomaly": 333.8934,
        "meta_ephemeris_type": 0,
        "meta_classification_type": "U",
        "meta_norad_cat_id": 40730,
        "meta_element_set_no": 999,
        "meta_rev_at_epoch": 7615,
        "meta_bstar": 0,
        "meta_mean_motion_dot": -3.6e-07,
        "meta_mean_motion_ddot": 0,
        "tle_line1": "1 40730U 15033A   25341.76480928 -.00000036  00000+0  00000+0 0  9993",
        "tle_line2": "2 40730  54.1351 274.9776 0110644  26.6875 333.8934  2.00565772 76153"
      },
      "geometry": {
        "type": "Point",
        "coordinates": [
          126.12947643340773,
          -35.641387217673206
        ]
      }
    },
    {
      "type": "Feature",
      "properties": {
        "norad_id": 41019,
        "name": "GPS BIIF-11 (PRN 10)",
        "group": "gps-ops",
        "lat": -0.8643990981539574,
        "lon": -141.25375247410847,
        "alt_km": 19986.5613705278,
        "timestamp": "2025-12-08T13:49:32.051508+00:00",
        "meta_object_name": "GPS BIIF-11 (PRN 10)",
        "meta_object_id": "2015-062A",
        "meta_epoch": "2025-12-07T07:48:52.356672",
        "meta_mean_motion": 2.00566963,
        "meta_eccentricity": 0.01106642,
        "meta_inclination": 56.8282,
        "meta_ra_of_asc_node": 38.2118,
        "meta_arg_of_pericenter": 229.7833,
        "meta_mean_anomaly": 129.2989,
        "meta_ephemeris_type": 0,
        "meta_classification_type": "U",
        "meta_norad_cat_id": 41019,
        "meta_element_set_no": 999,
        "meta_rev_at_epoch": 7398,
        "meta_bstar": 0,
        "meta_mean_motion_dot": -7.2e-07,
        "meta_mean_motion_ddot": 0,
        "tle_line1": "1 41019U 15062A   25341.32560598 -.00000072  00000+0  00000+0 0  9990",
        "tle_line2": "2 41019  56.8282  38.2118 0110664 229.7833 129.2989  2.00566963 73987"
      },
      "geometry": {
        "type": "Point",
        "coordinates": [
          -141.25375247410847,
          -0.8643990981539574
        ]
      }
    },
    {
      "type": "Feature",
      "properties": {
        "norad_id": 41328,
        "name": "GPS BIIF-12 (PRN 32)",
        "group": "gps-ops",
        "lat": 44.526781603543135,
        "lon": -125.67924472090625,
        "alt_km": 20303.975781665966,
        "timestamp": "2025-12-08T13:49:32.051520+00:00",
        "meta_object_name": "GPS BIIF-12 (PRN 32)",
        "meta_object_id": "2016-007A",
        "meta_epoch": "2025-12-07T09:47:29.747616",
        "meta_mean_motion": 2.00560863,
        "meta_eccentricity": 0.0091895,
        "meta_inclination": 55.4032,
        "meta_ra_of_asc_node": 97.0687,
        "meta_arg_of_pericenter": 243.44,
        "meta_mean_anomaly": 115.5952,
        "meta_ephemeris_type": 0,
        "meta_classification_type": "U",
        "meta_norad_cat_id": 41328,
        "meta_element_set_no": 999,
        "meta_rev_at_epoch": 7199,
        "meta_bstar": 0,
        "meta_mean_motion_dot": -4e-08,
        "meta_mean_motion_ddot": 0,
        "tle_line1": "1 41328U 16007A   25341.40798319 -.00000004  00000+0  00000+0 0  9991",
        "tle_line2": "2 41328  55.4032  97.0687 0091895 243.4400 115.5952  2.00560863 71999"
      },
      "geometry": {
        "type": "Point",
        "coordinates": [
          -125.67924472090625,
          44.526781603543135
        ]
      }
    },
    {
      "type": "Feature",
      "properties": {
        "norad_id": 43873,
        "name": "GPS BIII-1  (PRN 04)",
        "group": "gps-ops",
        "lat": 14.106632137566114,
        "lon": 109.62098884010518,
        "alt_km": 20280.368645443246,
        "timestamp": "2025-12-08T13:49:32.051531+00:00",
        "meta_object_name": "GPS BIII-1  (PRN 04)",
        "meta_object_id": "2018-109A",
        "meta_epoch": "2025-12-08T07:13:28.903008",
        "meta_mean_motion": 2.00553333,
        "meta_eccentricity": 0.00372059,
        "meta_inclination": 55.5652,
        "meta_ra_of_asc_node": 99.7218,
        "meta_arg_of_pericenter": 194.8087,
        "meta_mean_anomaly": 343.7939,
        "meta_ephemeris_type": 0,
        "meta_classification_type": "U",
        "meta_norad_cat_id": 43873,
        "meta_element_set_no": 999,
        "meta_rev_at_epoch": 5124,
        "meta_bstar": 0,
        "meta_mean_motion_dot": 5e-08,
        "meta_mean_motion_ddot": 0,
        "tle_line1": "1 43873U 18109A   25342.30102897  .00000005  00000+0  00000+0 0  9993",
        "tle_line2": "2 43873  55.5652  99.7218 0037205 194.8087 343.7939  2.00553333 51249"
      },
      "geometry": {
        "type": "Point",
        "coordinates": [
          109.62098884010518,
          14.106632137566114
        ]
      }
    },
    {
      "type": "Feature",
      "properties": {
        "norad_id": 44506,
        "name": "GPS BIII-2  (PRN 18)",
        "group": "gps-ops",
        "lat": -55.433924365770196,
        "lon": -103.10995120045871,
        "alt_km": 20150.27372344996,
        "timestamp": "2025-12-08T13:49:32.051543+00:00",
        "meta_object_name": "GPS BIII-2  (PRN 18)",
        "meta_object_id": "2019-056A",
        "meta_epoch": "2025-12-07T10:30:03.799008",
        "meta_mean_motion": 2.00565766,
        "meta_eccentricity": 0.00577762,
        "meta_inclination": 55.723,
        "meta_ra_of_asc_node": 338.7627,
        "meta_arg_of_pericenter": 198.4737,
        "meta_mean_anomaly": 333.4267,
        "meta_ephemeris_type": 0,
        "meta_classification_type": "U",
        "meta_norad_cat_id": 44506,
        "meta_element_set_no": 999,
        "meta_rev_at_epoch": 4622,
        "meta_bstar": 0,
        "meta_mean_motion_dot": -8.3e-07,
        "meta_mean_motion_ddot": 0,
        "tle_line1": "1 44506U 19056A   25341.43754397 -.00000083  00000+0  00000+0 0  9997",
        "tle_line2": "2 44506  55.7230 338.7627 0057776 198.4737 333.4267  2.00565766 46229"
      },
      "geometry": {
        "type": "Point",
        "coordinates": [
          -103.10995120045871,
          -55.433924365770196
        ]
      }
    },
    {
      "type": "Feature",
      "properties": {
        "norad_id": 45854,
        "name": "GPS BIII-3  (PRN 23)",
        "group": "gps-ops",
        "lat": -31.13309927369575,
        "lon": -120.11487458475754,
        "alt_km": 20031.22024337596,
        "timestamp": "2025-12-08T13:49:32.051554+00:00",
        "meta_object_name": "GPS BIII-3  (PRN 23)",
        "meta_object_id": "2020-041A",
        "meta_epoch": "2025-12-07T06:57:27.444672",
        "meta_mean_motion": 2.00561718,
        "meta_eccentricity": 0.00603563,
        "meta_inclination": 56.5433,
        "meta_ra_of_asc_node": 36.3977,
        "meta_arg_of_pericenter": 203.2104,
        "meta_mean_anomaly": 166.2515,
        "meta_ephemeris_type": 0,
        "meta_classification_type": "U",
        "meta_norad_cat_id": 45854,
        "meta_element_set_no": 999,
        "meta_rev_at_epoch": 4019,
        "meta_bstar": 0,
        "meta_mean_motion_dot": -7.4e-07,
        "meta_mean_motion_ddot": 0,
        "tle_line1": "1 45854U 20041A   25341.28990098 -.00000074  00000+0  00000+0 0  9993",
        "tle_line2": "2 45854  56.5433  36.3977 0060356 203.2104 166.2515  2.00561718 40191"
      },
      "geometry": {
        "type": "Point",
        "coordinates": [
          -120.11487458475754,
          -31.13309927369575
        ]
      }
    },
    {
      "type": "Feature",
      "properties": {
        "norad_id": 46826,
        "name": "GPS BIII-4  (PRN 14)",
        "group": "gps-ops",
        "lat": -7.0867466165517055,
        "lon": 43.698938663441986,
        "alt_km": 20018.62212379973,
        "timestamp": "2025-12-08T13:49:32.051565+00:00",
        "meta_object_name": "GPS BIII-4  (PRN 14)",
        "meta_object_id": "2020-078A",
        "meta_epoch": "2025-11-12T03:01:29.191584",
        "meta_mean_motion": 2.00567032,
        "meta_eccentricity": 0.00639112,
        "meta_inclination": 54.0223,
        "meta_ra_of_asc_node": 219.5836,
        "meta_arg_of_pericenter": 203.4986,
        "meta_mean_anomaly": 326.7753,
        "meta_ephemeris_type": 0,
        "meta_classification_type": "U",
        "meta_norad_cat_id": 46826,
        "meta_element_set_no": 999,
        "meta_rev_at_epoch": 3715,
        "meta_bstar": 0,
        "meta_mean_motion_dot": -3.4e-07,
        "meta_mean_motion_ddot": 0,
        "tle_line1": "1 46826U 20078A   25316.12603231 -.00000034  00000+0  00000+0 0  9994",
        "tle_line2": "2 46826  54.0223 219.5836 0063911 203.4986 326.7753  2.00567032 37154"
      },
      "geometry": {
        "type": "Point",
        "coordinates": [
          43.698938663441986,
          -7.0867466165517055
        ]
      }
    }
  ]
}